{
 "generated_at": "2026-06-20T08:22:11Z",
 "sources": [
  {
   "name": "CelesTrak",
   "url": "https://celestrak.org/NORAD/elements/",
   "license": "frei verfügbar; Attribution. Ursprünglich USSPACECOM/Space-Track."
  },
  {
   "name": "GCAT (J. McDowell, planet4589.org)",
   "url": "https://planet4589.org/space/gcat/",
   "license": "CC-BY 4.0"
  }
 ],
 "satellites": [
  {
   "norad": 43262,
   "name": "GAOFEN-1 04",
   "intl": "2018-031D",
   "group": "resource",
   "gcat": {
    "class": "C",
    "category": "IMG",
    "owner": "CNSAS",
    "state": "CN"
   },
   "omm": {
    "OBJECT_NAME": "GAOFEN-1 04",
    "OBJECT_ID": "2018-031D",
    "EPOCH": "2026-06-19T19:51:49.999392",
    "MEAN_MOTION": 14.76438428,
    "ECCENTRICITY": 0.000217,
    "INCLINATION": 98.0523,
    "RA_OF_ASC_NODE": 233.3969,
    "ARG_OF_PERICENTER": 74.1128,
    "MEAN_ANOMALY": 286.0321,
    "EPHEMERIS_TYPE": 0,
    "CLASSIFICATION_TYPE": "U",
    "NORAD_CAT_ID": 43262,
    "ELEMENT_SET_NO": 999,
    "REV_AT_EPOCH": 44307,
    "BSTAR": 0.00011643,
    "MEAN_MOTION_DOT": 0.00000758,
    "MEAN_MOTION_DDOT": 0
   }
  },
  {
   "norad": 44622,
   "name": "GAOFEN-10R",
   "intl": "2019-066A",
   "group": "resource",
   "gcat": {
    "class": null,
    "category": null,
    "owner": null,
    "state": null
   },
   "omm": {
    "OBJECT_NAME": "GAOFEN-10R",
    "OBJECT_ID": "2019-066A",
    "EPOCH": "2026-06-19T20:27:41.571072",
    "MEAN_MOTION": 14.83065584,
    "ECCENTRICITY": 0.0006809,
    "INCLINATION": 98.0503,
    "RA_OF_ASC_NODE": 124.4513,
    "ARG_OF_PERICENTER": 120.4507,
    "MEAN_ANOMALY": 239.738,
    "EPHEMERIS_TYPE": 0,
    "CLASSIFICATION_TYPE": "U",
    "NORAD_CAT_ID": 44622,
    "ELEMENT_SET_NO": 999,
    "REV_AT_EPOCH": 36277,
    "BSTAR": 0.0001141,
    "MEAN_MOTION_DOT": 0.00000874,
    "MEAN_MOTION_DDOT": 0
   }
  },
  {
   "norad": 43585,
   "name": "GAOFEN-11 01",
   "intl": "2018-063A",
   "group": "resource",
   "gcat": {
    "class": null,
    "category": null,
    "owner": null,
    "state": null
   },
   "omm": {
    "OBJECT_NAME": "GAOFEN-11 01",
    "OBJECT_ID": "2018-063A",
    "EPOCH": "2026-06-19T21:00:47.138112",
    "MEAN_MOTION": 15.55352059,
    "ECCENTRICITY": 0.0002742,
    "INCLINATION": 97.1288,
    "RA_OF_ASC_NODE": 237.747,
    "ARG_OF_PERICENTER": 345.485,
    "MEAN_ANOMALY": 14.6326,
    "EPHEMERIS_TYPE": 0,
    "CLASSIFICATION_TYPE": "U",
    "NORAD_CAT_ID": 43585,
    "ELEMENT_SET_NO": 999,
    "REV_AT_EPOCH": 44076,
    "BSTAR": 0.00016467,
    "MEAN_MOTION_DOT": 0.00011086,
    "MEAN_MOTION_DDOT": 0
   }
  },
  {
   "norad": 44819,
   "name": "GAOFEN-12 01",
   "intl": "2019-082A",
   "group": "resource",
   "gcat": {
    "class": null,
    "category": null,
    "owner": null,
    "state": null
   },
   "omm": {
    "OBJECT_NAME": "GAOFEN-12 01",
    "OBJECT_ID": "2019-082A",
    "EPOCH": "2026-06-19T20:25:10.803072",
    "MEAN_MOTION": 14.80460255,
    "ECCENTRICITY": 0.0002199,
    "INCLINATION": 97.81,
    "RA_OF_ASC_NODE": 177.16,
    "ARG_OF_PERICENTER": 67.2196,
    "MEAN_ANOMALY": 292.9248,
    "EPHEMERIS_TYPE": 0,
    "CLASSIFICATION_TYPE": "U",
    "NORAD_CAT_ID": 44819,
    "ELEMENT_SET_NO": 999,
    "REV_AT_EPOCH": 35448,
    "BSTAR": 0.000041046,
    "MEAN_MOTION_DOT": 0.00000263,
    "MEAN_MOTION_DDOT": 0
   }
  },
  {
   "norad": 48079,
   "name": "GAOFEN-12 02",
   "intl": "2021-026A",
   "group": "resource",
   "gcat": {
    "class": "D",
    "category": "IMG-R",
    "owner": "ZLZB",
    "state": "CN"
   },
   "omm": {
    "OBJECT_NAME": "GAOFEN-12 02",
    "OBJECT_ID": "2021-026A",
    "EPOCH": "2026-06-19T20:41:30.915168",
    "MEAN_MOTION": 14.80297764,
    "ECCENTRICITY": 0.0003877,
    "INCLINATION": 97.9922,
    "RA_OF_ASC_NODE": 169.0318,
    "ARG_OF_PERICENTER": 210.898,
    "MEAN_ANOMALY": 149.2004,
    "EPHEMERIS_TYPE": 0,
    "CLASSIFICATION_TYPE": "U",
    "NORAD_CAT_ID": 48079,
    "ELEMENT_SET_NO": 999,
    "REV_AT_EPOCH": 28215,
    "BSTAR": 0.000039699,
    "MEAN_MOTION_DOT": 0.0000025,
    "MEAN_MOTION_DDOT": 0
   }
  },
  {
   "norad": 52912,
   "name": "GAOFEN-12 03",
   "intl": "2022-069A",
   "group": "resource",
   "gcat": {
    "class": "D",
    "category": "IMG-R",
    "owner": "ZLZB",
    "state": "CN"
   },
   "omm": {
    "OBJECT_NAME": "GAOFEN-12 03",
    "OBJECT_ID": "2022-069A",
    "EPOCH": "2026-06-19T19:47:55.573728",
    "MEAN_MOTION": 14.8003613,
    "ECCENTRICITY": 0.0002152,
    "INCLINATION": 97.8273,
    "RA_OF_ASC_NODE": 58.6285,
    "ARG_OF_PERICENTER": 101.5635,
    "MEAN_ANOMALY": 258.5818,
    "EPHEMERIS_TYPE": 0,
    "CLASSIFICATION_TYPE": "U",
    "NORAD_CAT_ID": 52912,
    "ELEMENT_SET_NO": 999,
    "REV_AT_EPOCH": 21500,
    "BSTAR": 0.000018183,
    "MEAN_MOTION_DOT": 8.7e-7,
    "MEAN_MOTION_DDOT": 0
   }
  },
  {
   "norad": 57654,
   "name": "GAOFEN-12 04",
   "intl": "2023-123A",
   "group": "resource",
   "gcat": {
    "class": "D",
    "category": "IMG-R",
    "owner": "ZLZB",
    "state": "CN"
   },
   "omm": {
    "OBJECT_NAME": "GAOFEN-12 04",
    "OBJECT_ID": "2023-123A",
    "EPOCH": "2026-06-19T20:11:26.266272",
    "MEAN_MOTION": 14.80232918,
    "ECCENTRICITY": 0.0001776,
    "INCLINATION": 97.9121,
    "RA_OF_ASC_NODE": 88.821,
    "ARG_OF_PERICENTER": 82.2867,
    "MEAN_ANOMALY": 277.8547,
    "EPHEMERIS_TYPE": 0,
    "CLASSIFICATION_TYPE": "U",
    "NORAD_CAT_ID": 57654,
    "ELEMENT_SET_NO": 999,
    "REV_AT_EPOCH": 15302,
    "BSTAR": 0.00010196,
    "MEAN_MOTION_DOT": 0.00000724,
    "MEAN_MOTION_DDOT": 0
   }
  },
  {
   "norad": 40118,
   "name": "GAOFEN-2",
   "intl": "2014-049A",
   "group": "resource",
   "gcat": {
    "class": "C",
    "category": "IMG",
    "owner": "CNSAS",
    "state": "CN"
   },
   "omm": {
    "OBJECT_NAME": "GAOFEN-2",
    "OBJECT_ID": "2014-049A",
    "EPOCH": "2026-06-19T21:05:50.303616",
    "MEAN_MOTION": 14.80901104,
    "ECCENTRICITY": 0.0006327,
    "INCLINATION": 98.0104,
    "RA_OF_ASC_NODE": 235.0839,
    "ARG_OF_PERICENTER": 216.075,
    "MEAN_ANOMALY": 144.0036,
    "EPHEMERIS_TYPE": 0,
    "CLASSIFICATION_TYPE": "U",
    "NORAD_CAT_ID": 40118,
    "ELEMENT_SET_NO": 999,
    "REV_AT_EPOCH": 63963,
    "BSTAR": 0.00008507,
    "MEAN_MOTION_DOT": 0.00000604,
    "MEAN_MOTION_DDOT": 0
   }
  },
  {
   "norad": 41727,
   "name": "GAOFEN-3",
   "intl": "2016-049A",
   "group": "resource",
   "gcat": {
    "class": "C",
    "category": "IMG-R",
    "owner": "GWHYZ",
    "state": "CN"
   },
   "omm": {
    "OBJECT_NAME": "GAOFEN-3",
    "OBJECT_ID": "2016-049A",
    "EPOCH": "2026-06-19T20:37:06.030048",
    "MEAN_MOTION": 14.42214829,
    "ECCENTRICITY": 0.0001447,
    "INCLINATION": 98.4009,
    "RA_OF_ASC_NODE": 178.6049,
    "ARG_OF_PERICENTER": 99.672,
    "MEAN_ANOMALY": 260.4633,
    "EPHEMERIS_TYPE": 0,
    "CLASSIFICATION_TYPE": "U",
    "NORAD_CAT_ID": 41727,
    "ELEMENT_SET_NO": 999,
    "REV_AT_EPOCH": 51903,
    "BSTAR": -0.000062517,
    "MEAN_MOTION_DOT": -0.00000249,
    "MEAN_MOTION_DDOT": 0
   }
  },
  {
   "norad": 49495,
   "name": "GAOFEN-3 02",
   "intl": "2021-109A",
   "group": "sar",
   "gcat": {
    "class": "C",
    "category": "IMG-R",
    "owner": "GWHYZ",
    "state": "CN"
   },
   "omm": {
    "OBJECT_NAME": "GAOFEN-3 02",
    "OBJECT_ID": "2021-109A",
    "EPOCH": "2026-06-19T19:46:35.929344",
    "MEAN_MOTION": 14.42216398,
    "ECCENTRICITY": 0.0002734,
    "INCLINATION": 98.4085,
    "RA_OF_ASC_NODE": 178.8835,
    "ARG_OF_PERICENTER": 11.2151,
    "MEAN_ANOMALY": 348.9099,
    "EPHEMERIS_TYPE": 0,
    "CLASSIFICATION_TYPE": "U",
    "NORAD_CAT_ID": 49495,
    "ELEMENT_SET_NO": 999,
    "REV_AT_EPOCH": 24069,
    "BSTAR": -0.000064311,
    "MEAN_MOTION_DOT": -0.00000255,
    "MEAN_MOTION_DDOT": 0
   }
  }
 ]
}
