GAOFEN-2                
1 40118U 14049A   26170.87905444  .00000604  00000+0  85070-4 0  9992
2 40118  98.0104 235.0839 0006327 216.0750 144.0036 14.80901104639630
GAOFEN-3                
1 41727U 16049A   26170.85909757 -.00000249  00000+0 -62517-4 0  9998
2 41727  98.4009 178.6049 0001447  99.6720 260.4633 14.42214829519036
GAOFEN-1 04             
1 43262U 18031D   26170.82766203  .00000758  00000+0  11643-3 0  9997
2 43262  98.0523 233.3969 0002170  74.1128 286.0321 14.76438428443071
GAOFEN-11 01            
1 43585U 18063A   26170.87554558  .00011086  00000+0  16467-3 0  9998
2 43585  97.1288 237.7470 0002742 345.4850  14.6326 15.55352059440769
GAOFEN-10R              
1 44622U 19066A   26170.85256448  .00000874  00000+0  11410-3 0  9996
2 44622  98.0503 124.4513 0006809 120.4507 239.7380 14.83065584362778
GAOFEN-12 01            
1 44819U 19082A   26170.85081948  .00000263  00000+0  41046-4 0  9994
2 44819  97.8100 177.1600 0002199  67.2196 292.9248 14.80460255354482
GAOFEN-12 02            
1 48079U 21026A   26170.86216337  .00000250  00000+0  39699-4 0  9997
2 48079  97.9922 169.0318 0003877 210.8980 149.2004 14.80297764282155
GAOFEN-3 02             
1 49495U 21109A   26170.82402696 -.00000255  00000+0 -64311-4 0  9999
2 49495  98.4085 178.8835 0002734  11.2151 348.9099 14.42216398240697
GAOFEN-12 03            
1 52912U 22069A   26170.82494877  .00000087  00000+0  18183-4 0  9992
2 52912  97.8273  58.6285 0002152 101.5635 258.5818 14.80036130215003
GAOFEN-12 04            
1 57654U 23123A   26170.84127623  .00000724  00000+0  10196-3 0  9999
2 57654  97.9121  88.8210 0001776  82.2867 277.8547 14.80232918153028
